GLOBALSTAR M075         
1 37192U 10054E   25073.56020162 -.00000070  00000+0  19086-3 0  9995
2 37192  51.9931 109.6532 0000434 116.5713  42.7195 12.62262476663891
GLOBALSTAR M073         
1 37193U 10054F   25073.56337051 -.00000100  00000+0  19330-4 0  9991
2 37193  52.0085  23.3920 0000586  84.7558  86.7587 12.62264059665881
GLOBALSTAR M083         
1 37739U 11033A   25073.49701763 -.00000071  00000+0  18017-3 0  9999
2 37739  51.9883 332.4559 0000774  67.4411 103.9270 12.62260394634894
GLOBALSTAR M088         
1 37740U 11033B   25073.60797441 -.00000107  00000+0 -20663-4 0  9994
2 37740  51.9716 237.6864 0000835  93.5410 342.7554 12.62264226630457
GLOBALSTAR M091         
1 37741U 11033C   25073.60755537 -.00000110  00000+0 -34486-4 0  9997
2 37741  51.9985 201.0744 0000793  87.3246 286.2234 12.62265716631249
GLOBALSTAR M085         
1 37742U 11033D   25073.62357214 -.00000068  00000+0  19843-3 0  9990
2 37742  51.9855 152.1484 0000610  96.8449  49.5855 12.62266227631754
GLOBALSTAR M081         
1 37743U 11033E   25073.56235905 -.00000071  00000+0  18298-3 0  9993
2 37743  51.9948 155.0628 0000785 106.0802   2.4475 12.62261493631891
GLOBALSTAR M089         
1 37744U 11033F   25073.43864924 -.00000057  00000+0  26221-3 0  9998
2 37744  51.9916 109.6851 0000571 138.0277 307.9446 12.62267317632729
